FLOCK 4G-5              
1 62663U 25009BG  26068.45638436  .00011278  00000+0  40688-3 0  9997
2 62663  97.4058 151.2478 0002094 314.5072  45.5996 15.28679529 63699
STARLINK-35118          
1 66858U 25281L   26067.18085412  .00039094  00000+0  14204-2 0  9998
2 66858  43.0039 352.0942 0001601 279.6952  80.3719 15.27631687 15951
